NORAD_CAT_ID,OBJECT_NAME,OBJECT_TYPE,EPOCH,MEAN_MOTION,ECCENTRICITY,INCLINATION,RA_OF_ASC_NODE,ARG_OF_PERICENTER,MEAN_ANOMALY,BSTAR,MEAN_MOTION_DOT,MEAN_MOTION_DDOT,TLE_LINE0,TLE_LINE1,TLE_LINE2,SEMIMAJOR_AXIS,PERIOD,APOGEE,PERIGEE,DECAYED
55393.0,STARLINK-4786,PAYLOAD,2024-04-24 19:53:09,14.98329522,0.0002695,70.0019,348.5705,246.045,114.0427,3.6035e-06,-5e-07,0.0,0 STARLINK-4786,1 55393U 23014C   24115.82857944 -.00000050  00000-0  36035-5 0  9993,2 55393  70.0019 348.5705 0002695 246.0450 114.0427 14.98329522 68681,6950.194,96.107,573.932,570.186,0.0
55393.0,STARLINK-4786,PAYLOAD,2024-04-24 21:29:17,14.98328965,0.0002717,70.0018,348.4021,245.3508,114.7368,-6.2416e-06,-1.67e-06,0.0,0 STARLINK-4786,1 55393U 23014C   24115.89533997 -.00000167  00000-0 -62416-5 0  9991,2 55393  70.0018 348.4021 0002717 245.3508 114.7368 14.98328965 69638,6950.196,96.107,573.949,570.173,0.0
55393.0,STARLINK-4786,PAYLOAD,2024-04-25 00:41:33,14.98328466,0.0002757,70.0017,348.066,246.9394,113.1475,-5.6686e-05,-7.69e-06,0.0,0 STARLINK-4786,1 55393U 23014C   24116.02886172 -.00000769  00000-0 -56686-4 0  9992,2 55393  70.0017 348.0660 0002757 246.9394 113.1475 14.98328466 69656,6950.198,96.107,573.979,570.146,0.0
55393.0,STARLINK-4786,PAYLOAD,2024-04-25 19:55:09,14.98334098,0.0002839,70.0015,346.0462,249.451,110.6345,2.053e-05,1.52e-06,0.0,0 STARLINK-4786,1 55393U 23014C   24116.82997507  .00000152  00000-0  20530-4 0  9998,2 55393  70.0015 346.0462 0002839 249.4510 110.6345 14.98334098 68836,6950.18,96.107,574.018,570.072,0.0
55393.0,STARLINK-4786,PAYLOAD,2024-04-25 21:31:17,14.9833389,0.0002842,70.0015,345.8778,249.1826,110.9029,1.8214e-05,1.24e-06,0.0,0 STARLINK-4786,1 55393U 23014C   24116.89673511  .00000124  00000-0  18214-4 0  9996,2 55393  70.0015 345.8778 0002842 249.1826 110.9029 14.98333890 69780,6950.181,96.107,574.021,570.071,0.0
55393.0,STARLINK-4786,PAYLOAD,2024-04-26 00:43:33,14.98335567,0.0003019,70.0007,345.5403,259.8102,100.2716,3.6119e-05,3.38e-06,0.0,0 STARLINK-4786,1 55393U 23014C   24117.03025362  .00000338  00000-0  36119-4 0  9999,2 55393  70.0007 345.5403 0003019 259.8102 100.2716 14.98335567 69806,6950.176,96.107,574.139,569.942,0.0
55393.0,STARLINK-4786,PAYLOAD,2024-04-26 16:44:54,14.9833026,0.000317,70.0001,343.8555,270.4158,89.6637,6.3531e-05,6.65e-06,0.0,0 STARLINK-4786,1 55393U 23014C   24117.69785528  .00000665  00000-0  63531-4 0  9999,2 55393  70.0001 343.8555 0003170 270.4158  89.6637 14.98330260 69905,6950.192,96.107,574.26,569.854,0.0
55393.0,STARLINK-4786,PAYLOAD,2024-04-27 00:45:34,14.98335567,0.0002951,70.0,343.0121,261.7399,98.3425,0.00017473,1.993e-05,0.0,0 STARLINK-4786,1 55393U 23014C   24118.03164811  .00001993  00000-0  17473-3 0  9992,2 55393  70.0000 343.0121 0002951 261.7399  98.3425 14.98335567 69010,6950.176,96.107,574.092,569.99,0.0
55393.0,STARLINK-4786,PAYLOAD,2024-04-27 08:46:14,14.98336237,0.0003226,69.9997,342.17,269.2226,90.8564,7.2756e-05,7.75e-06,0.0,0 STARLINK-4786,1 55393U 23014C   24118.36544881  .00000775  00000-0  72756-4 0  9990,2 55393  69.9997 342.1700 0003226 269.2226  90.8564 14.98336237 70000,6950.174,96.107,574.281,569.796,0.0
55393.0,STARLINK-4786,PAYLOAD,2024-04-27 21:35:19,14.98328635,0.0003047,69.9999,340.8252,268.7114,91.3695,-1.3166e-05,-2.5e-06,0.0,0 STARLINK-4786,1 55393U 23014C   24118.89953594 -.00000250  00000-0 -13166-4 0  9993,2 55393  69.9999 340.8252 0003047 268.7114  91.3695 14.98328635 69147,6950.197,96.107,574.18,569.944,0.0
55393.0,STARLINK-4786,PAYLOAD,2024-04-28 00:47:36,14.98330212,0.0003076,69.9997,340.4885,267.744,92.3367,-6.2827e-05,-8.43e-06,0.0,0 STARLINK-4786,1 55393U 23014C   24119.03305600 -.00000843  00000-0 -62827-4 0  9995,2 55393  69.9997 340.4885 0003076 267.7440  92.3367 14.98330212 70105,6950.192,96.107,574.195,569.919,0.0
55393.0,STARLINK-4786,PAYLOAD,2024-04-28 21:37:20,14.98329833,0.0003032,69.9995,338.3002,265.7118,94.3694,-7.6577e-05,-1.007e-05,0.0,0 STARLINK-4786,1 55393U 23014C   24119.90093670 -.00001007  00000-0 -76577-4 0  9992,2 55393  69.9995 338.3002 0003032 265.7118  94.3694 14.98329833 70238,6950.193,96.107,574.166,569.951,0.0
55393.0,STARLINK-4786,PAYLOAD,2024-04-29 00:49:37,14.98326896,0.0003065,69.9996,337.9636,267.7903,92.2905,-6.9475e-06,-1.76e-06,0.0,0 STARLINK-4786,1 55393U 23014C   24120.03445694 -.00000176  00000-0 -69475-5 0  9991,2 55393  69.9996 337.9636 0003065 267.7903  92.2905 14.98326896 69312,6950.202,96.107,574.198,569.937,0.0
55393.0,STARLINK-4786,PAYLOAD,2024-04-29 07:14:09,14.9832854,0.0002948,69.9998,337.2901,267.734,92.3481,-2.1708e-06,-1.19e-06,0.0,0 STARLINK-4786,1 55393U 23014C   24120.30149586 -.00000119  00000-0 -21708-5 0  9996,2 55393  69.9998 337.2901 0002948 267.7340  92.3481 14.98328540 70293,6950.197,96.107,574.111,570.013,0.0
55393.0,STARLINK-4786,PAYLOAD,2024-04-29 21:39:21,14.98329942,0.000308,69.9991,335.7744,271.0341,89.0465,7.0489e-05,7.48e-06,0.0,0 STARLINK-4786,1 55393U 23014C   24120.90233237  .00000748  00000-0  70489-4 0  9994,2 55393  69.9991 335.7744 0003080 271.0341  89.0465 14.98329942 70383,6950.193,96.107,574.199,569.917,0.0
55393.0,STARLINK-4786,PAYLOAD,2024-04-29 23:15:29,14.98331213,0.0003066,69.9992,335.6061,270.9676,89.1132,8.3437e-05,9.03e-06,0.0,0 STARLINK-4786,1 55393U 23014C   24120.96909116  .00000903  00000-0  83437-4 0  9996,2 55393  69.9992 335.6061 0003066 270.9676  89.1132 14.98331213 69450,6950.189,96.107,574.185,569.923,0.0
55393.0,STARLINK-4786,PAYLOAD,2024-04-30 15:16:50,14.98326894,0.0003027,69.9994,333.9232,269.392,90.6892,2.4635e-05,2.01e-06,0.0,0 STARLINK-4786,1 55393U 23014C   24121.63669534  .00000201  00000-0  24635-4 0  9994,2 55393  69.9994 333.9232 0003027 269.3920  90.6892 14.98326894 70499,6950.202,96.107,574.171,569.964,0.0
55393.0,STARLINK-4786,PAYLOAD,2024-04-30 20:05:14,14.98327014,0.000303,69.9994,333.4181,269.2451,90.8361,2.4172e-05,1.95e-06,0.0,0 STARLINK-4786,1 55393U 23014C   24121.83697554  .00000195  00000-0  24172-4 0  9997,2 55393  69.9994 333.4181 0003030 269.2451  90.8361 14.98327014 69585,6950.202,96.107,574.173,569.961,0.0
55393.0,STARLINK-4786,PAYLOAD,2024-04-30 21:41:22,14.98328224,0.0003004,69.9993,333.2498,269.2955,90.786,3.8467e-05,3.66e-06,0.0,0 STARLINK-4786,1 55393U 23014C   24121.90373442  .00000366  00000-0  38467-4 0  9994,2 55393  69.9993 333.2498 0003004 269.2955  90.7860 14.98328224 70537,6950.198,96.107,574.151,569.976,0.0
55393.0,STARLINK-4786,PAYLOAD,2024-05-01 07:18:10,14.98332607,0.0002998,69.9993,332.2396,269.3652,90.7163,5.0686e-05,5.12e-06,0.0,0 STARLINK-4786,1 55393U 23014C   24122.30429116  .00000512  00000-0  50686-4 0  9999,2 55393  69.9993 332.2396 0002998 269.3652  90.7163 14.98332607 70591,6950.185,96.107,574.133,569.966,0.0
55393.0,STARLINK-4786,PAYLOAD,2024-05-01 23:19:30,14.98338603,0.0002964,69.9993,330.5571,268.7251,91.3569,5.5174e-05,5.66e-06,0.0,0 STARLINK-4786,1 55393U 23014C   24122.97188457  .00000566  00000-0  55174-4 0  9998,2 55393  69.9993 330.5571 0002964 268.7251  91.3569 14.98338603 69753,6950.166,96.106,574.091,569.971,0.0
55393.0,STARLINK-4786,PAYLOAD,2024-05-02 15:20:52,14.98327157,0.0003009,69.9989,328.8729,268.9095,91.1719,-1.0264e-05,-2.15e-06,0.0,0 STARLINK-4786,1 55393U 23014C   24123.63949184 -.00000215  00000-0 -10264-4 0  9998,2 55393  69.9989 328.8729 0003009 268.9095  91.1719 14.98327157 70795,6950.202,96.107,574.158,569.975,0.0
55393.0,STARLINK-4786,PAYLOAD,2024-05-02 20:09:16,14.98327722,0.0003102,69.9986,328.3675,268.6492,91.4312,-2.9233e-05,-4.42e-06,0.0,0 STARLINK-4786,1 55393U 23014C   24123.83977205 -.00000442  00000-0 -29233-4 0  9993,2 55393  69.9986 328.3675 0003102 268.6492  91.4312 14.98327722 69887,6950.2,96.107,574.221,569.909,0.0
55393.0,STARLINK-4786,PAYLOAD,2024-05-03 13:46:45,14.98330838,0.0002965,69.9987,326.5159,271.1126,88.9694,-8.8315e-05,-1.147e-05,0.0,0 STARLINK-4786,1 55393U 23014C   24124.57413240 -.00001147  00000-0 -88315-4 0  9998,2 55393  69.9987 326.5159 0002965 271.1126  88.9694 14.98330838 70938,6950.19,96.107,574.116,569.995,0.0
55393.0,STARLINK-4786,PAYLOAD,2024-05-03 20:11:17,14.98326772,0.0003011,69.9987,325.8425,271.2645,88.8169,-3.1395e-06,-1.3e-06,0.0,0 STARLINK-4786,1 55393U 23014C   24124.84117184 -.00000130  00000-0 -31395-5 0  9994,2 55393  69.9987 325.8425 0003011 271.2645  88.8169 14.98326772 70035,6950.203,96.107,574.161,569.975,0.0
55393.0,STARLINK-4786,PAYLOAD,2024-05-03 21:47:25,14.98326862,0.0003008,69.9987,325.6742,271.2809,88.8006,-2.216e-06,-1.19e-06,0.0,0 STARLINK-4786,1 55393U 23014C   24124.90793190 -.00000119  00000-0 -22160-5 0  9995,2 55393  69.9987 325.6742 0003008 271.2809  88.8006 14.98326862 70987,6950.203,96.107,574.158,569.977,0.0
55393.0,STARLINK-4786,PAYLOAD,2024-05-04 20:13:17,14.98330062,0.000302,69.9987,323.3174,271.3197,88.7616,6.5107e-05,6.84e-06,0.0,0 STARLINK-4786,1 55393U 23014C   24125.84256871  .00000684  00000-0  65107-4 0  9991,2 55393  69.9987 323.3174 0003020 271.3197  88.7616 14.98330062 70181,6950.193,96.107,574.157,569.959,0.0
55393.0,STARLINK-4786,PAYLOAD,2024-05-05 13:50:46,14.98329422,0.0003022,69.9986,321.4657,270.4126,89.6687,4.6983e-05,4.68e-06,0.0,0 STARLINK-4786,1 55393U 23014C   24126.57692936  .00000468  00000-0  46983-4 0  9999,2 55393  69.9986 321.4657 0003022 270.4126  89.6687 14.98329422 71232,6950.195,96.107,574.16,569.959,0.0
55393.0,STARLINK-4786,PAYLOAD,2024-05-05 21:51:26,14.98330534,0.0002905,69.9991,320.6245,269.5368,90.5459,6.9025e-05,7.31e-06,0.0,0 STARLINK-4786,1 55393U 23014C   24126.91072778  .00000731  00000-0  69025-4 0  9998,2 55393  69.9991 320.6245 0002905 269.5368  90.5459 14.98330534 71287,6950.191,96.107,574.075,570.037,0.0
55393.0,STARLINK-4786,PAYLOAD,2024-05-05 23:27:34,14.98332203,0.0003108,69.9985,320.4554,271.5802,88.5001,7.2434e-05,7.71e-06,0.0,0 STARLINK-4786,1 55393U 23014C   24126.97748645  .00000771  00000-0  72434-4 0  9999,2 55393  69.9985 320.4554 0003108 271.5802  88.5001 14.98332203 70355,6950.186,96.107,574.211,569.891,0.0
